      2.10          N: GNSS NAV DATA                        RINEX VERSION / TYPE
fic2rin                                 06/06/2024 00:59:02 PGM / RUN BY / DATE
                                                            END OF HEADER
2  24  6  5  2  0  0.0 -.423601828516D-03  .693489710102D-11  .000000000000D+00
     .400000000000D+02 -.115125000000D+03  .443768484739D-08  .298774791373D+01
    -.601634383202D-05  .159860709682D-01  .126101076603D-05  .515370347023D+04
     .266400000000D+06  .236555933952D-06  .181199312963D+01  .208616256714D-06
     .967108492225D+00  .354437500000D+03 -.118069747665D+01 -.815176812529D-08
    -.202865593023D-09  .100000000000D+01  .231700000000D+04  .000000000000D+00
     .240000000000D+01  .000000000000D+00 -.176951289177D-07  .400000000000D+02
     .259200000000D+06  .400000000000D+01
1  24  6  5  2  0  0.0  .264534726739D-03 -.568434188608D-11  .000000000000D+00
     .570000000000D+02  .105906250000D+03  .539772483691D-08 -.207937289939D+01
     .544451177120D-05  .133830956183D-01  .107679516077D-04  .515377158356D+04
     .266400000000D+06  .169500708580D-06 -.182270958534D+00 -.134110450745D-06
     .954815917836D+00  .170468750000D+03  .103196394581D+01 -.752138472444D-08
    -.252867675811D-09  .100000000000D+01  .231700000000D+04  .000000000000D+00
     .340000000000D+01  .630000000000D+02 -.195577740669D-07  .570000000000D+02
     .259200000000D+06  .400000000000D+01
5  24  6  5  2  0  0.0 -.175192486495D-03 -.136424205266D-11  .000000000000D+00
     .230000000000D+02 -.110500000000D+03  .404588281297D-08  .312687678905D+01
    -.593066215515D-05  .589762802701D-02  .109560787678D-04  .515362773323D+04
     .266400000000D+06  .104308128357D-06  .289537771258D+01 -.912696123123D-07
     .971877474964D+00  .175406250000D+03  .125805905994D+01 -.754710008130D-08
     .279297348141D-09  .100000000000D+01  .231700000000D+04  .000000000000D+00
     .240000000000D+01  .000000000000D+00 -.107102096081D-07  .230000000000D+02
     .259200000000D+06  .400000000000D+01
3  24  6  5  2  0  0.0  .398203264922D-03  .185309545486D-10  .000000000000D+00
     .640000000000D+02 -.951250000000D+02  .381480175895D-08 -.549697780776D+00
    -.484101474285D-05  .556509383023D-02  .121816992760D-04  .515372103119D+04
     .266400000000D+06 -.353902578354D-07  .294680860625D+01  .782310962677D-07
     .984939579373D+00  .162187500000D+03  .109314327205D+01 -.757710133097D-08
     .389659088008D-09  .100000000000D+01  .231700000000D+04  .000000000000D+00
     .240000000000D+01  .000000000000D+00  .139698386192D-08  .640000000000D+02
     .259200000000D+06  .400000000000D+01
8  24  6  5  2  0  0.0  .214162282646D-03  .188720150618D-10  .000000000000D+00
     .250000000000D+02  .120187500000D+03  .462269255370D-08  .275805703034D+01
     .619329512119D-05  .944685807917D-02  .170990824699D-05  .515364346695D+04
     .266400000000D+06 -.502914190292D-07  .814074206053D+00 -.141561031342D-06
     .953146541054D+00  .344687500000D+03  .365184392653D+00 -.834713340590D-08
     .325727853587D-09  .100000000000D+01  .231700000000D+04  .000000000000D+00
     .240000000000D+01  .000000000000D+00  .465661287308D-08  .250000000000D+02
     .259200000000D+06  .400000000000D+01
4  24  6  5  2  0  0.0  .376340467483D-03  .818545231596D-11  .000000000000D+00
     .165000000000D+03  .175937500000D+02  .491377610707D-08  .242450958704D+01
     .972300767899D-06  .283476046752D-02  .667758285999D-05  .515373136902D+04
     .266400000000D+06 -.763684511185D-07 -.225834968094D+01  .335276126862D-07
     .964813922773D+00  .255625000000D+03 -.294737285521D+01 -.799497587998D-08
     .500020827875D-09  .100000000000D+01  .231700000000D+04  .000000000000D+00
     .240000000000D+01  .000000000000D+00 -.465661287308D-08  .933000000000D+03
     .259200000000D+06  .400000000000D+01
30 24  6  5  6  0  0.0 -.379316508770D-03  .602540239925D-11  .000000000000D+00
     .660000000000D+02 -.187812500000D+02  .556666044518D-08  .185206471896D+01
    -.972300767899D-06  .717077811714D-02  .706873834133D-05  .515362630653D+04
     .280800000000D+06 -.189989805222D-06 -.124483978108D+01  .391155481339D-07
     .935000265280D+00  .234437500000D+03 -.245950688408D+01 -.837106297409D-08
    -.516807241382D-09  .100000000000D+01  .231700000000D+04  .000000000000D+00
     .240000000000D+01  .000000000000D+00  .419095158577D-08  .660000000000D+02
     .273600000000D+06  .400000000000D+01
21 24  6  5  6  0  0.0  .117404386401D-03 -.227373675443D-11  .000000000000D+00
     .410000000000D+02 -.931250000000D+02  .451518807571D-08 -.156985459084D+01
    -.476464629173D-05  .251569021493D-01  .213831663132D-05  .515368760872D+04
     .280800000000D+06 -.374391674995D-06  .180462834213D+01 -.251457095146D-06
     .961367900740D+00  .344562500000D+03 -.565763851410D+00 -.852714090393D-08
     .771460705864D-10  .100000000000D+01  .231700000000D+04  .000000000000D+00
     .240000000000D+01  .000000000000D+00 -.102445483208D-07  .410000000000D+02
     .273600000000D+06  .400000000000D+01
26 24  6  5  6  0  0.0  .142051838338D-03 -.602540239925D-11  .000000000000D+00
     .820000000000D+02  .639687500000D+02  .501878048092D-08  .439641346244D+00
     .359490513802D-05  .887734210119D-02  .110492110252D-04  .515365179825D+04
     .280800000000D+06  .745058059692D-08 -.279025172598D+00  .171363353729D-06
     .931427749110D+00  .147093750000D+03  .542047709617D+00 -.820498462769D-08
    -.533593654889D-09  .100000000000D+01  .231700000000D+04  .000000000000D+00
     .240000000000D+01  .000000000000D+00  .651925802231D-08  .820000000000D+02
     .273600000000D+06  .400000000000D+01
27 24  6  5  6  0  0.0 -.270330347121D-04 -.147792889038D-11  .000000000000D+00
     .177000000000D+03  .111968750000D+03  .437589655937D-08 -.135967989336D+01
     .593997538090D-05  .125303759705D-01  .227242708206D-05  .515368643188D+04
     .280800000000D+06  .314787030220D-06  .840504742602D+00 -.260770320892D-07
     .962140742807D+00  .336343750000D+03  .796390434755D+00 -.819819863074D-08
     .161435295857D-09  .100000000000D+01  .231700000000D+04  .000000000000D+00
     .240000000000D+01  .000000000000D+00  .186264514923D-08  .177000000000D+03
     .273600000000D+06  .400000000000D+01
15 24  6  5  6  0  0.0  .166705343872D-03  .420641299570D-11  .000000000000D+00
     .920000000000D+02  .133437500000D+02  .524843290401D-08 -.237304894054D+01
     .527128577232D-06  .156567671802D-01  .745616853237D-05  .515365398788D+04
     .280800000000D+06  .227242708206D-06 -.244618931175D+01  .409781932831D-07
     .935468112333D+00  .213593750000D+03  .131336501732D+01 -.796676041898D-08
     .831106047474D-09  .100000000000D+01  .231700000000D+04  .000000000000D+00
     .240000000000D+01  .000000000000D+00 -.102445483208D-07  .920000000000D+02
     .273600000000D+06  .400000000000D+01
23 24  6  5  6  0  0.0  .242712907493D-03  .920863385545D-11  .000000000000D+00
     .750000000000D+02 -.109906250000D+03  .372622664087D-08  .169839749835D+01
    -.576861202717D-05  .419668946415D-02  .108927488327D-04  .515372322845D+04
     .280800000000D+06 -.931322574615D-08  .291512568909D+01  .949949026108D-07
     .979735859805D+00  .177531250000D+03 -.296997602649D+01 -.753924261115D-08
     .279297348141D-09  .100000000000D+01  .231700000000D+04  .000000000000D+00
     .240000000000D+01  .000000000000D+00 -.838190317154D-08  .750000000000D+02
     .273600000000D+06  .400000000000D+01
13 24  6  5  6  0  0.0  .655709765851D-03  .272848410532D-11  .000000000000D+00
     .540000000000D+02  .135312500000D+02  .473126850490D-08 -.169295247776D+01
     .700354576111D-06  .810118205845D-02  .607222318649D-05  .515364413643D+04
     .280800000000D+06  .163912773132D-06 -.215200145262D+01 -.316649675369D-07
     .971261424068D+00  .264718750000D+03  .923637394348D+00 -.784211236974D-08
     .538593863168D-09  .100000000000D+01  .231700000000D+04  .000000000000D+00
     .240000000000D+01  .000000000000D+00 -.111758708954D-07  .540000000000D+02
     .273600000000D+06  .400000000000D+01
16 24  6  5  6  0  0.0 -.272876117378D-03  .103455022327D-10  .000000000000D+00
     .134000000000D+03  .965937500000D+02  .425517724521D-08 -.515502171615D+00
     .512041151524D-05  .138260503300D-01  .108219683170D-04  .515357836533D+04
     .280800000000D+06  .204890966415D-07 -.111961876553D+00  .230967998505D-06
     .962278807163D+00  .171656250000D+03  .837446313400D+00 -.799319009131D-08
    -.354657630057D-09  .100000000000D+01  .231700000000D+04  .000000000000D+00
     .240000000000D+01  .000000000000D+00 -.102445483208D-07  .134000000000D+03
     .273600000000D+06  .400000000000D+01
19 24  6  5  6  0  0.0  .491986982524D-03  .534328137292D-11  .000000000000D+00
     .680000000000D+02  .867812500000D+02  .456018995022D-08  .563800308134D+00
     .422634184361D-05  .990458694287D-02  .102445483208D-05  .515370980453D+04
     .280800000000D+06  .163912773132D-06  .953159544932D+00 -.184401869774D-06
     .968001397441D+00  .364031250000D+03  .255323160693D+01 -.852642658846D-08
     .103575742917D-09  .100000000000D+01  .231700000000D+04  .000000000000D+00
     .240000000000D+01  .000000000000D+00 -.153668224812D-07  .680000000000D+02
     .273600000000D+06  .400000000000D+01
22 24  6  5  6  0  0.0 -.231647863984D-04 -.500222085975D-11  .000000000000D+00
     .152000000000D+03  .109187500000D+03  .429660754238D-08 -.902574064313D+00
     .571645796299D-05  .142617376987D-01  .108387321234D-04  .515371104813D+04
     .280800000000D+06 -.188127160072D-06 -.108669551620D+00 -.931322574615D-07
     .961598491740D+00  .173656250000D+03 -.113433077089D+01 -.803426323074D-08
    -.225723688012D-09  .100000000000D+01  .231700000000D+04  .000000000000D+00
     .240000000000D+01  .000000000000D+00 -.111758708954D-07  .152000000000D+03
     .273600000000D+06  .400000000000D+01
